{"type":"FeatureCollection","features":[{"type":"Feature","properties":{"name":"India"},"geometry":{"type":"MultiPolygon","coordinates":[[[[77.519,35.486],[77.688,35.453],[77.815,35.522],[77.911,35.462],[77.938,35.559],[78.157,35.551],[78.244,35.725],[78.8,35.87],[78.856,35.974],[79.028,35.914],[79.27,35.927],[79.343,35.988],[79.442,35.968],[79.489,35.849],[79.572,35.897],[79.704,35.639],[79.846,35.575],[79.999,35.602],[79.966,35.554],[80.055,35.423],[80.205,35.575],[80.412,35.477],[80.286,35.354],[80.283,35.204],[80.195,35.118],[80.205,34.891],[80.137,34.869],[80.074,34.706],[79.787,34.627],[79.794,34.48],[79.509,34.454],[79.607,34.238],[79.491,34.191],[79.403,34.002],[78.995,34.037],[78.887,33.973],[79.028,33.754],[79.012,33.685],[79.09,33.637],[78.907,33.62],[78.94,33.38],[79.107,33.2],[79.217,33.238],[79.408,33.189],[79.331,33.001],[79.557,32.759],[79.548,32.677],[79.413,32.52],[79.276,32.556],[79.132,32.481],[79.1,32.371],[78.968,32.336],[78.779,32.479],[78.74,32.696],[78.395,32.53],[78.472,32.442],[78.488,32.276],[78.78,31.994],[78.702,31.807],[78.847,31.609],[78.72,31.509],[78.797,31.444],[78.778,31.312],[78.9,31.29],[79.099,31.455],[79.427,31.023],[79.507,31.032],[79.603,30.94],[79.752,31.006],[79.866,30.972],[79.931,30.881],[80.239,30.762],[80.218,30.58],[80.607,30.471],[80.802,30.323],[81.031,30.247],[80.997,30.186],[80.91,30.223],[80.747,30.006],[80.603,29.959],[80.494,29.796],[80.366,29.748],[80.408,29.596],[80.243,29.444],[80.317,29.315],[80.297,29.205],[80.248,29.221],[80.272,29.142],[80.145,29.104],[80.075,28.824],[80.517,28.552],[80.504,28.665],[80.569,28.688],[81.034,28.397],[81.211,28.361],[81.318,28.134],[81.447,28.161],[81.478,28.083],[81.885,27.857],[82.07,27.924],[82.449,27.679],[82.708,27.723],[82.736,27.502],[83.188,27.454],[83.317,27.33],[83.409,27.413],[83.388,27.48],[83.614,27.469],[83.864,27.346],[83.847,27.445],[84.024,27.433],[84.151,27.517],[84.292,27.385],[84.62,27.339],[84.689,27.221],[84.643,27.046],[84.963,26.961],[85.053,26.889],[85.024,26.854],[85.191,26.87],[85.211,26.758],[85.334,26.742],[85.627,26.873],[85.729,26.808],[85.734,26.651],[85.852,26.568],[86.027,26.667],[86.217,26.589],[86.333,26.619],[86.731,26.423],[87.072,26.586],[87.091,26.45],[87.341,26.347],[87.466,26.44],[87.605,26.381],[87.888,26.487],[88.008,26.361],[88.091,26.426],[88.186,26.738],[88.135,26.985],[87.987,27.119],[88.067,27.336],[88.044,27.496],[88.197,27.791],[88.118,27.918],[88.142,27.965],[88.414,27.981],[88.637,28.118],[88.836,28.015],[88.888,27.856],[88.763,27.566],[88.915,27.291],[88.802,27.249],[88.746,27.142],[88.872,27.109],[88.875,26.943],[88.921,26.994],[89.134,26.807],[89.379,26.862],[89.65,26.777],[89.626,26.723],[89.861,26.702],[90.194,26.774],[90.23,26.859],[90.356,26.901],[90.717,26.77],[91.097,26.822],[91.336,26.78],[91.408,26.84],[91.69,26.807],[91.892,26.921],[92.056,26.847],[92.121,26.961],[92.031,27.08],[92.038,27.258],[92.123,27.287],[92.017,27.481],[91.652,27.483],[91.562,27.631],[91.643,27.761],[91.924,27.717],[92.244,27.888],[92.319,27.797],[92.424,27.835],[92.456,27.793],[92.73,27.978],[92.732,28.054],[92.656,28.08],[92.677,28.151],[92.922,28.201],[93.426,28.662],[93.712,28.665],[94.261,28.932],[94.366,29.026],[94.277,29.094],[94.293,29.152],[94.626,29.296],[94.697,29.315],[94.807,29.165],[95.022,29.127],[94.995,29.174],[95.263,29.068],[95.299,29.136],[95.413,29.126],[95.434,29.193],[95.504,29.126],[95.502,29.192],[95.596,29.188],[95.606,29.236],[95.709,29.204],[95.812,29.348],[95.877,29.315],[96.054,29.383],[96.303,29.192],[96.187,29.037],[96.33,29.113],[96.448,28.94],[96.522,28.939],[96.632,28.734],[96.641,28.68],[96.545,28.687],[96.406,28.506],[96.498,28.429],[96.493,28.542],[96.712,28.611],[96.925,28.353],[97.126,28.362],[97.36,28.205],[97.312,28.062],[97.395,28.012],[97.366,27.877],[97.247,27.9],[96.89,27.606],[96.903,27.453],[97.164,27.142],[97.138,27.091],[96.868,27.185],[96.884,27.26],[96.704,27.372],[96.524,27.286],[96.229,27.279],[96.023,27.18],[95.946,27.051],[95.802,27.015],[95.723,26.881],[95.525,26.823],[95.431,26.7],[95.149,26.616],[95.062,26.45],[95.132,26.378],[95.118,26.101],[95.186,26.073],[95.012,25.898],[95.049,25.76],[94.898,25.566],[94.635,25.395],[94.576,25.214],[94.741,25.127],[94.714,24.935],[94.398,24.482],[94.157,23.848],[93.93,23.95],[93.808,23.927],[93.754,24.006],[93.505,23.942],[93.414,24.074],[93.328,24.081],[93.438,23.687],[93.355,23.353],[93.385,23.135],[93.294,23.007],[93.127,23.044],[93.164,22.911],[93.094,22.806],[93.106,22.527],[93.185,22.428],[93.202,22.264],[93.142,22.246],[93.151,22.176],[93.038,22.195],[93.005,21.987],[92.951,22.03],[92.906,21.941],[92.863,22.063],[92.7,22.155],[92.68,22.012],[92.603,21.978],[92.517,22.722],[92.45,22.894],[92.371,22.936],[92.347,23.236],[92.404,23.241],[92.28,23.719],[92.215,23.652],[92.148,23.736],[92.047,23.646],[91.957,23.734],[91.97,23.478],[91.762,23.3],[91.836,23.092],[91.619,22.937],[91.412,23.284],[91.417,23.065],[91.347,23.102],[91.32,23.36],[91.16,23.611],[91.208,23.687],[91.157,23.742],[91.219,23.737],[91.254,23.837],[91.233,23.927],[91.304,23.998],[91.379,23.975],[91.374,24.108],[91.586,24.073],[91.666,24.234],[91.763,24.142],[91.745,24.247],[91.85,24.224],[91.902,24.137],[91.92,24.337],[92.164,24.419],[92.155,24.523],[92.224,24.517],[92.296,24.737],[92.232,24.9],[92.498,24.876],[92.425,25.03],[92.062,25.188],[91.638,25.123],[91.612,25.176],[91.47,25.134],[91.268,25.207],[90.441,25.145],[89.967,25.304],[89.838,25.293],[89.882,25.617],[89.816,25.815],[89.887,25.945],[89.825,25.945],[89.871,25.981],[89.774,26.038],[89.795,26.088],[89.681,26.164],[89.679,26.238],[89.591,26.157],[89.65,26.063],[89.577,25.969],[89.424,26.048],[89.356,26.008],[89.155,26.138],[89.087,26.398],[88.957,26.46],[88.905,26.409],[88.996,26.29],[89.06,26.293],[89.051,26.242],[88.898,26.289],[88.842,26.231],[88.793,26.31],[88.666,26.263],[88.745,26.348],[88.436,26.545],[88.399,26.627],[88.332,26.482],[88.485,26.46],[88.524,26.359],[88.458,26.377],[88.35,26.22],[88.177,26.148],[88.183,26.025],[88.086,25.917],[88.107,25.815],[88.269,25.808],[88.454,25.665],[88.444,25.597],[88.54,25.508],[88.699,25.471],[88.81,25.523],[88.841,25.364],[89.008,25.264],[88.923,25.165],[88.844,25.214],[88.806,25.171],[88.442,25.21],[88.399,24.945],[88.33,24.87],[88.257,24.878],[88.224,24.962],[88.138,24.936],[88.175,24.86],[88.009,24.668],[88.334,24.382],[88.735,24.279],[88.746,24.147],[88.699,24.121],[88.769,23.982],[88.668,23.87],[88.575,23.862],[88.558,23.649],[88.741,23.48],[88.801,23.497],[88.719,23.255],[88.996,23.215],[88.845,23.009],[88.969,22.845],[88.912,22.757],[88.962,22.694],[88.938,22.56],[88.996,22.286],[89.098,22.155],[89.04,22.102],[89.064,21.937],[89.019,21.976],[88.986,21.896],[89.1,21.637],[88.92,21.63],[88.86,21.777],[88.849,21.616],[88.819,21.684],[88.723,21.678],[88.7,21.857],[88.779,22.014],[88.755,22.075],[88.685,22.067],[88.72,22.003],[88.639,22.076],[88.555,21.815],[88.518,21.948],[88.458,21.896],[88.451,21.612],[88.424,21.719],[88.397,21.591],[88.402,21.72],[88.368,21.682],[88.275,21.734],[88.31,21.579],[88.247,21.561],[88.156,21.956],[88.209,22.149],[88.02,22.223],[88.19,22.104],[88.048,22.014],[87.804,21.696],[87.34,21.578],[87.377,21.55],[87.092,21.537],[86.912,21.338],[86.827,21.137],[86.975,20.821],[86.868,20.775],[86.996,20.77],[87.003,20.712],[86.926,20.71],[86.964,20.695],[87.07,20.721],[86.769,20.503],[86.732,20.535],[86.708,20.409],[86.788,20.377],[86.674,20.294],[86.799,20.347],[86.521,20.185],[86.423,20.002],[86.315,19.988],[86.372,19.952],[85.54,19.696],[85.592,19.703],[85.038,19.392],[85.082,19.374],[84.746,19.117],[84.746,19.075],[84.793,19.114],[84.306,18.533],[84.36,18.554],[84.1,18.35],[84.129,18.31],[83.556,18.026],[83.215,17.59],[82.602,17.284],[82.306,17.038],[82.251,16.875],[82.36,16.825],[82.333,16.989],[82.371,16.909],[82.342,16.736],[82.269,16.707],[82.37,16.724],[82.309,16.597],[82.258,16.689],[82.3,16.585],[82.259,16.561],[82.305,16.56],[81.719,16.309],[81.717,16.365],[81.71,16.305],[81.553,16.372],[81.267,16.293],[81.152,15.972],[80.997,15.822],[81.031,15.761],[80.938,15.71],[80.898,15.755],[80.923,15.715],[80.832,15.701],[80.805,15.842],[80.677,15.89],[80.522,15.857],[80.264,15.672],[80.048,15.074],[80.078,14.809],[80.185,14.597],[80.14,14.565],[80.196,14.578],[80.104,14.252],[80.126,14.066],[80.257,13.782],[80.236,13.644],[80.346,13.283],[80.156,12.462],[79.873,12.04],[79.759,11.672],[79.832,11.361],[79.761,11.379],[79.839,11.352],[79.857,11.196],[79.827,10.817],[79.881,10.311],[79.793,10.273],[79.639,10.365],[79.294,10.26],[79.231,10.147],[79.268,10.04],[78.995,9.712],[78.9,9.487],[79,9.347],[78.959,9.34],[79.189,9.28],[78.861,9.251],[78.266,9.018],[78.125,8.762],[78.201,8.785],[78.11,8.639],[78.131,8.495],[78.07,8.374],[77.55,8.074],[77.317,8.123],[77.012,8.35],[76.546,8.9],[76.666,8.994],[76.539,8.934],[76.46,9.136],[76.496,9.168],[76.428,9.25],[76.458,9.142],[76.357,9.365],[76.236,9.96],[76.288,9.947],[76.27,10.033],[76.241,9.973],[76.172,10.14],[76.208,10.195],[76.156,10.184],[76.065,10.543],[75.92,10.778],[75.958,10.817],[75.912,10.785],[75.826,11.12],[75.87,11.124],[75.805,11.155],[75.758,11.36],[75.62,11.476],[75.543,11.711],[75.355,11.862],[75.315,11.97],[75.201,12.004],[74.825,12.838],[74.87,12.833],[74.695,13.343],[74.666,13.631],[74.722,13.638],[74.65,13.664],[74.427,14.278],[74.517,14.242],[74.422,14.286],[74.383,14.539],[74.311,14.518],[74.292,14.594],[74.35,14.604],[74.268,14.624],[74.284,14.712],[74.118,14.771],[74.165,14.859],[74.115,14.841],[74.051,14.984],[73.913,15.083],[73.956,15.157],[73.898,15.328],[73.785,15.408],[73.885,15.428],[73.789,15.459],[73.826,15.504],[73.77,15.49],[73.734,15.588],[73.79,15.652],[73.734,15.615],[73.629,15.871],[73.457,16.053],[73.385,16.336],[73.428,16.372],[73.367,16.379],[73.469,16.413],[73.37,16.395],[73.317,16.511],[73.337,16.56],[73.362,16.478],[73.444,16.5],[73.319,16.598],[73.402,16.616],[73.333,16.619],[73.307,16.728],[73.346,16.828],[73.297,16.813],[73.283,16.952],[73.33,16.968],[73.257,17.048],[73.287,16.999],[73.325,17.04],[73.191,17.297],[73.3,17.292],[73.172,17.399],[73.214,17.433],[73.14,17.558],[73.217,17.589],[73.138,17.61],[73.089,17.834],[73.13,17.834],[73.054,17.902],[73.092,17.94],[73.031,17.949],[73.091,17.99],[73.02,17.991],[72.99,18.192],[72.933,18.217],[72.967,18.279],[73.102,18.142],[73.045,18.296],[73.086,18.319],[73.03,18.263],[72.921,18.347],[72.907,18.54],[73.006,18.467],[72.857,18.694],[72.868,18.801],[72.939,18.825],[73.016,18.715],[72.989,18.865],[72.909,18.897],[73.067,19.021],[73.001,19.004],[72.986,19.19],[72.958,19.037],[72.866,19.006],[72.806,18.893],[72.831,19.18],[72.78,19.154],[72.841,19.254],[72.783,19.192],[72.786,19.305],[72.912,19.288],[72.777,19.348],[72.745,19.46],[72.889,19.524],[72.73,19.529],[72.655,19.833],[72.666,19.934],[72.746,19.942],[72.708,20.072],[72.783,20.211],[72.754,20.29],[72.9,20.53],[72.845,20.744],[72.93,20.759],[72.826,20.794],[72.783,20.919],[72.85,20.972],[72.758,20.929],[72.734,20.998],[72.728,21.054],[72.849,21.032],[72.798,21.05],[72.828,21.092],[72.707,21.087],[72.789,21.18],[72.677,21.158],[72.64,21.08],[72.638,21.207],[72.742,21.198],[72.598,21.298],[72.686,21.355],[72.646,21.387],[72.699,21.463],[72.762,21.448],[72.646,21.446],[72.68,21.501],[72.834,21.666],[72.928,21.676],[72.537,21.663],[72.619,21.906],[72.75,21.973],[72.537,21.896],[72.508,21.976],[72.586,22.205],[72.761,22.174],[72.819,22.257],[72.912,22.265],[72.748,22.231],[72.535,22.305],[72.431,22.205],[72.38,22.337],[72.326,22.308],[72.299,22.103],[72.182,22.022],[72.247,21.924],[72.163,21.96],[72.25,21.911],[72.25,21.81],[72.215,21.857],[72.166,21.81],[72.306,21.627],[72.236,21.454],[72.089,21.315],[72.111,21.199],[71.514,20.955],[71.442,20.868],[70.822,20.691],[70.156,21.055],[69.396,21.855],[69.26,21.914],[68.935,22.307],[69.068,22.479],[69.035,22.39],[69.192,22.418],[69.157,22.31],[69.227,22.256],[69.48,22.332],[69.51,22.425],[69.574,22.322],[69.622,22.365],[69.668,22.323],[69.728,22.475],[69.808,22.398],[69.832,22.45],[69.921,22.438],[69.986,22.545],[70.174,22.542],[70.448,22.97],[70.287,22.945],[70.219,23.055],[70.224,22.953],[70.132,22.996],[70.1,22.908],[69.898,22.871],[69.885,22.913],[69.729,22.819],[69.711,22.738],[69.452,22.775],[69.352,22.818],[69.362,22.881],[69.35,22.818],[69.225,22.876],[69.196,22.836],[68.632,23.169],[68.717,23.125],[68.579,23.227],[68.679,23.302],[68.576,23.347],[68.509,23.494],[68.449,23.48],[68.469,23.551],[68.425,23.509],[68.548,23.714],[68.811,23.879],[68.659,23.859],[68.514,23.745],[68.434,23.736],[68.427,23.819],[68.35,23.582],[68.266,23.556],[68.272,23.625],[68.254,23.568],[68.172,23.617],[68.35,23.73],[68.262,23.736],[68.246,23.671],[68.19,23.727],[68.207,23.834],[68.357,23.974],[68.753,23.971],[68.808,24.313],[68.866,24.212],[68.945,24.303],[69.003,24.223],[69.095,24.274],[69.194,24.236],[69.594,24.292],[69.732,24.171],[70.025,24.171],[70.11,24.295],[70.561,24.421],[70.603,24.408],[70.571,24.252],[70.714,24.216],[70.907,24.259],[70.874,24.295],[70.947,24.349],[71.12,24.402],[70.999,24.444],[70.986,24.596],[71.096,24.689],[70.938,24.939],[70.888,25.148],[70.665,25.397],[70.66,25.702],[70.269,25.714],[70.1,25.938],[70.174,26.551],[69.823,26.589],[69.51,26.744],[69.513,27.01],[69.587,27.183],[70.026,27.563],[70.133,27.806],[70.372,28.012],[70.589,28.01],[70.74,27.742],[70.872,27.706],[71.206,27.835],[71.666,27.878],[71.898,27.961],[71.927,28.122],[72.207,28.395],[72.39,28.77],[72.946,29.028],[73.282,29.572],[73.397,29.946],[73.807,30.068],[73.973,30.198],[73.88,30.36],[73.974,30.444],[73.935,30.49],[74.072,30.523],[74.416,30.94],[74.696,31.074],[74.689,31.128],[74.571,31.081],[74.51,31.132],[74.552,31.364],[74.655,31.426],[74.487,31.715],[74.607,31.89],[74.819,31.959],[74.879,32.054],[75.24,32.091],[75.372,32.226],[75.322,32.344],[75.133,32.409],[75.102,32.477],[74.681,32.493],[74.638,32.615],[74.695,32.661],[74.654,32.729],[74.705,32.842],[74.638,32.751],[74.372,32.77],[73.926,33.034],[73.816,33.01],[73.634,33.093],[73.67,33.211],[73.576,33.377],[73.634,33.526],[73.572,33.63],[73.595,33.892],[73.501,34.018],[73.488,34.279],[73.398,34.378],[73.453,34.569],[73.657,34.563],[73.728,34.764],[74.045,34.89],[74.132,35.119],[73.75,35.221],[73.693,35.349],[73.794,35.449],[73.786,35.524],[73.405,35.529],[73.331,35.663],[73.126,35.721],[73.2,35.787],[73.178,35.86],[72.569,35.852],[72.51,35.902],[72.568,36.012],[72.521,36.079],[72.549,36.233],[72.967,36.477],[73.075,36.609],[73.062,36.697],[73.374,36.758],[73.861,36.725],[73.67,36.922],[74.041,36.834],[74.424,37.007],[74.563,36.971],[74.573,37.039],[74.689,37.096],[74.735,37.038],[74.841,37.066],[74.902,36.941],[75.146,37.034],[75.418,36.959],[75.46,36.73],[75.54,36.78],[75.736,36.753],[75.941,36.606],[76.028,36.44],[76.719,36.16],[76.839,35.86],[77.09,35.74],[77.349,35.72],[77.469,35.652],[77.519,35.486]]],[[[93.846,7.245],[93.963,7.003],[93.915,6.81],[93.842,6.753],[93.67,7.017],[93.66,7.128],[93.846,7.245]]],[[[93.736,7.423],[93.775,7.365],[93.664,7.248],[93.648,7.372],[93.736,7.423]]],[[[93.378,8.021],[93.459,7.87],[93.319,7.924],[93.378,8.021]]],[[[93.567,8.026],[93.59,7.926],[93.519,7.983],[93.567,8.026]]],[[[93.537,8.236],[93.561,8.037],[93.512,7.998],[93.549,8.066],[93.497,8.052],[93.463,8.167],[93.537,8.236]]],[[[73.061,8.278],[73.018,8.271],[73.08,8.323],[73.061,8.278]]],[[[93.131,8.355],[93.202,8.196],[93.095,8.265],[93.131,8.355]]],[[[93.628,8.529],[93.628,8.417],[93.619,8.571],[93.628,8.529]]],[[[92.78,9.247],[92.83,9.142],[92.739,9.12],[92.72,9.211],[92.78,9.247]]],[[[92.549,10.88],[92.622,10.762],[92.578,10.568],[92.524,10.507],[92.387,10.527],[92.385,10.791],[92.549,10.88]]],[[[92.661,11.494],[92.7,11.365],[92.611,11.34],[92.661,11.494]]],[[[92.975,12.033],[93.048,11.88],[93.01,11.975],[92.93,11.993],[92.975,12.033]]],[[[92.71,12.227],[92.707,12.163],[92.764,12.172],[92.712,12.049],[92.798,12.051],[92.723,11.923],[92.8,11.897],[92.763,11.697],[92.672,11.647],[92.763,11.658],[92.719,11.473],[92.626,11.557],[92.65,11.63],[92.521,11.843],[92.572,11.94],[92.615,11.847],[92.629,12.102],[92.71,12.227]]],[[[92.827,12.303],[92.895,12.283],[92.889,12.193],[92.773,12.059],[92.75,12.247],[92.827,12.303]]],[[[92.91,12.911],[92.991,12.708],[92.979,12.488],[92.922,12.402],[92.91,12.457],[92.85,12.47],[92.888,12.41],[92.81,12.457],[92.897,12.321],[92.747,12.296],[92.694,12.612],[92.759,12.667],[92.792,12.633],[92.796,12.701],[92.743,12.669],[92.73,12.822],[92.91,12.911]]],[[[93.049,13.546],[93.015,13.427],[93.096,13.328],[92.963,13.342],[93.073,13.263],[93.041,13.057],[92.97,13.007],[92.95,13.096],[92.94,13.05],[92.897,13.089],[92.947,12.967],[92.906,12.991],[92.877,12.881],[92.812,12.896],[92.852,13.4],[92.929,13.532],[93.049,13.546]]],[[[93.029,13.67],[93.04,13.622],[92.99,13.65],[93.029,13.67]]],[[[88.553,21.631],[88.59,21.602],[88.545,21.569],[88.553,21.631]]],[[[88.727,21.666],[88.791,21.584],[88.71,21.591],[88.697,21.711],[88.727,21.666]]],[[[88.211,21.67],[88.213,21.595],[88.205,21.724],[88.211,21.67]]],[[[88.559,21.73],[88.596,21.62],[88.528,21.659],[88.559,21.73]]],[[[88.545,21.812],[88.571,21.735],[88.523,21.719],[88.545,21.812]]],[[[88.169,21.786],[88.149,21.634],[88.052,21.64],[88.137,21.875],[88.169,21.786]]],[[[88.646,21.917],[88.637,21.786],[88.595,21.858],[88.646,21.917]]],[[[88.664,22.019],[88.715,22.001],[88.679,21.944],[88.629,21.959],[88.664,22.019]]],[[[88.07,21.922],[88.08,22.009],[88.143,22.028],[88.07,21.922]]]]}}]}